{"type": "FeatureCollection", "features": [ {"type": "Feature", "properties": {"norad_id": 30629, "name": "FENGYUN 1C DEB", "group": "fengyun-1c-debris", "lat": 31.7859298795834, "lon": -95.15935695942396, "alt_km": 690.3644294052101, "timestamp": "2025-12-09T11:33:55.077526+00:00", "meta": {"OBJECT_NAME": "FENGYUN 1C DEB", "OBJECT_ID": "1999-025ANL", "EPOCH": "2025-12-09T04:36:41.167296", "MEAN_MOTION": 14.5940781, "ECCENTRICITY": 0.0007719, "INCLINATION": 99.2515, "RA_OF_ASC_NODE": 78.7209, "ARG_OF_PERICENTER": 207.2431, "MEAN_ANOMALY": 219.0725, "EPHEMERIS_TYPE": 0, "CLASSIFICATION_TYPE": "U", "NORAD_CAT_ID": 30629, "ELEMENT_SET_NO": 999, "REV_AT_EPOCH": 97838, "BSTAR": 0.0036551, "MEAN_MOTION_DOT": 0.00017308, "MEAN_MOTION_DDOT": 0}, "tle": {"line1": "1 30629U 99025ANL 25343.19214314  .00017308  00000+0  36551-2 0  9997", "line2": "2 30629  99.2515  78.7209 0007719 207.2431 219.0725 14.59407810978389"}}, "geometry": {"type": "Point", "coordinates": [-95.15935695942396, 31.7859298795834]}}, {"type": "Feature", "properties": {"norad_id": 30630, "name": "FENGYUN 1C DEB", "group": "fengyun-1c-debris", "lat": -1.7561488595674324, "lon": -23.896270362733276, "alt_km": 823.0400151285621, "timestamp": "2025-12-09T11:33:55.077536+00:00", "meta": {"OBJECT_NAME": "FENGYUN 1C DEB", "OBJECT_ID": "1999-025ANM", "EPOCH": "2025-12-09T01:10:33.840192", "MEAN_MOTION": 14.22354704, "ECCENTRICITY": 0.0025987, "INCLINATION": 99.1727, "RA_OF_ASC_NODE": 155.9374, "ARG_OF_PERICENTER": 85.0092, "MEAN_ANOMALY": 41.0132, "EPHEMERIS_TYPE": 0, "CLASSIFICATION_TYPE": "U", "NORAD_CAT_ID": 30630, "ELEMENT_SET_NO": 999, "REV_AT_EPOCH": 97160, "BSTAR": 0.0011643, "MEAN_MOTION_DOT": 2.552e-05, "MEAN_MOTION_DDOT": 0}, "tle": {"line1": "1 30630U 99025ANM 25343.04900278  .00002552  00000+0  11643-2 0  9994", "line2": "2 30630  99.1727 155.9374 0025987  85.0092  41.0132 14.22354704971604"}}, "geometry": {"type": "Point", "coordinates": [-23.896270362733276, -1.7561488595674324]}}, {"type": "Feature", "properties": {"norad_id": 30632, "name": "FENGYUN 1C DEB", "group": "fengyun-1c-debris", "lat": -77.12874338753831, "lon": -108.21976173239176, "alt_km": 690.6542601911242, "timestamp": "2025-12-09T11:33:55.077546+00:00", "meta": {"OBJECT_NAME": "FENGYUN 1C DEB", "OBJECT_ID": "1999-025ANP", "EPOCH": "2025-12-08T21:47:11.080896", "MEAN_MOTION": 14.62524171, "ECCENTRICITY": 0.0015287, "INCLINATION": 98.8239, "RA_OF_ASC_NODE": 113.9959, "ARG_OF_PERICENTER": 180.7989, "MEAN_ANOMALY": 298.5492, "EPHEMERIS_TYPE": 0, "CLASSIFICATION_TYPE": "U", "NORAD_CAT_ID": 30632, "ELEMENT_SET_NO": 999, "REV_AT_EPOCH": 97635, "BSTAR": 0.0044143, "MEAN_MOTION_DOT": 0.00022444, "MEAN_MOTION_DDOT": 0}, "tle": {"line1": "1 30632U 99025ANP 25342.90776714  .00022444  00000+0  44143-2 0  9999", "line2": "2 30632  98.8239 113.9959 0015287 180.7989 298.5492 14.62524171976359"}}, "geometry": {"type": "Point", "coordinates": [-108.21976173239176, -77.12874338753831]}}, {"type": "Feature", "properties": {"norad_id": 30633, "name": "FENGYUN 1C DEB", "group": "fengyun-1c-debris", "lat": 67.39008348879544, "lon": 49.553529806434454, "alt_km": 960.0498033157965, "timestamp": "2025-12-09T11:33:55.077556+00:00", "meta": {"OBJECT_NAME": "FENGYUN 1C DEB", "OBJECT_ID": "1999-025ANQ", "EPOCH": "2025-12-09T04:48:18.309024", "MEAN_MOTION": 14.04372494, "ECCENTRICITY": 0.0130507, "INCLINATION": 98.4203, "RA_OF_ASC_NODE": 208.4579, "ARG_OF_PERICENTER": 270.2891, "MEAN_ANOMALY": 218.0035, "EPHEMERIS_TYPE": 0, "CLASSIFICATION_TYPE": "U", "NORAD_CAT_ID": 30633, "ELEMENT_SET_NO": 999, "REV_AT_EPOCH": 95842, "BSTAR": 0.0011208, "MEAN_MOTION_DOT": 1.884e-05, "MEAN_MOTION_DDOT": 0}, "tle": {"line1": "1 30633U 99025ANQ 25343.20021191  .00001884  00000+0  11208-2 0  9997", "line2": "2 30633  98.4203 208.4579 0130507 270.2891 218.0035 14.04372494958428"}}, "geometry": {"type": "Point", "coordinates": [49.553529806434454, 67.39008348879544]}}, {"type": "Feature", "properties": {"norad_id": 30634, "name": "FENGYUN 1C DEB", "group": "fengyun-1c-debris", "lat": 52.58785153633219, "lon": -46.16365760994484, "alt_km": 801.1094697776616, "timestamp": "2025-12-09T11:33:55.077566+00:00", "meta": {"OBJECT_NAME": "FENGYUN 1C DEB", "OBJECT_ID": "1999-025ANR", "EPOCH": "2025-12-08T21:56:34.865952", "MEAN_MOTION": 14.09663996, "ECCENTRICITY": 0.0120636, "INCLINATION": 99.2925, "RA_OF_ASC_NODE": 325.6104, "ARG_OF_PERICENTER": 107.2408, "MEAN_ANOMALY": 308.6516, "EPHEMERIS_TYPE": 0, "CLASSIFICATION_TYPE": "U", "NORAD_CAT_ID": 30634, "ELEMENT_SET_NO": 999, "REV_AT_EPOCH": 95563, "BSTAR": 0.0023581, "MEAN_MOTION_DOT": 4.379e-05, "MEAN_MOTION_DDOT": 0}, "tle": {"line1": "1 30634U 99025ANR 25342.91429243  .00004379  00000+0  23581-2 0  9994", "line2": "2 30634  99.2925 325.6104 0120636 107.2408 308.6516 14.09663996955635"}}, "geometry": {"type": "Point", "coordinates": [-46.16365760994484, 52.58785153633219]}}, {"type": "Feature", "properties": {"norad_id": 30639, "name": "FENGYUN 1C DEB", "group": "fengyun-1c-debris", "lat": 3.7077856722302576, "lon": -84.07101170368858, "alt_km": 806.3683135139099, "timestamp": "2025-12-09T11:33:55.077576+00:00", "meta": {"OBJECT_NAME": "FENGYUN 1C DEB", "OBJECT_ID": "1999-025ANW", "EPOCH": "2025-12-08T06:14:09.476160", "MEAN_MOTION": 14.32220794, "ECCENTRICITY": 0.00669922, "INCLINATION": 99.0204, "RA_OF_ASC_NODE": 94.0688, "ARG_OF_PERICENTER": 294.2872, "MEAN_ANOMALY": 65.1323, "EPHEMERIS_TYPE": 0, "CLASSIFICATION_TYPE": "U", "NORAD_CAT_ID": 30639, "ELEMENT_SET_NO": 999, "REV_AT_EPOCH": 96655, "BSTAR": 0.0036588497, "MEAN_MOTION_DOT": 0.00010074, "MEAN_MOTION_DDOT": 0}, "tle": {"line1": "1 30639U 99025ANW 25342.25983190  .00010074  00000+0  36588-2 0  9992", "line2": "2 30639  99.0204  94.0688 0066992 294.2872  65.1323 14.32220794966553"}}, "geometry": {"type": "Point", "coordinates": [-84.07101170368858, 3.7077856722302576]}}, {"type": "Feature", "properties": {"norad_id": 30640, "name": "FENGYUN 1C DEB", "group": "fengyun-1c-debris", "lat": 19.368327036495295, "lon": -122.14327862789243, "alt_km": 806.2100786689834, "timestamp": "2025-12-09T11:33:55.077586+00:00", "meta": {"OBJECT_NAME": "FENGYUN 1C DEB", "OBJECT_ID": "1999-025ANX", "EPOCH": "2025-12-09T04:17:16.135008", "MEAN_MOTION": 14.14600532, "ECCENTRICITY": 0.008117, "INCLINATION": 99.0572, "RA_OF_ASC_NODE": 54.3348, "ARG_OF_PERICENTER": 110.5747, "MEAN_ANOMALY": 305.6255, "EPHEMERIS_TYPE": 0, "CLASSIFICATION_TYPE": "U", "NORAD_CAT_ID": 30640, "ELEMENT_SET_NO": 999, "REV_AT_EPOCH": 96395, "BSTAR": 0.0016391, "MEAN_MOTION_DOT": 3.206e-05, "MEAN_MOTION_DDOT": 0}, "tle": {"line1": "1 30640U 99025ANX 25343.17865897  .00003206  00000+0  16391-2 0  9998", "line2": "2 30640  99.0572  54.3348 0081170 110.5747 305.6255 14.14600532963950"}}, "geometry": {"type": "Point", "coordinates": [-122.14327862789243, 19.368327036495295]}}, {"type": "Feature", "properties": {"norad_id": 30641, "name": "FENGYUN 1C DEB", "group": "fengyun-1c-debris", "lat": 70.8077969210332, "lon": -109.39876258916625, "alt_km": 582.7286587806257, "timestamp": "2025-12-09T11:33:55.077596+00:00", "meta": {"OBJECT_NAME": "FENGYUN 1C DEB", "OBJECT_ID": "1999-025ANY", "EPOCH": "2025-12-08T19:14:48.630336", "MEAN_MOTION": 14.78914798, "ECCENTRICITY": 0.01360654, "INCLINATION": 98.9421, "RA_OF_ASC_NODE": 276.7402, "ARG_OF_PERICENTER": 138.9481, "MEAN_ANOMALY": 277.5159, "EPHEMERIS_TYPE": 0, "CLASSIFICATION_TYPE": "U", "NORAD_CAT_ID": 30641, "ELEMENT_SET_NO": 999, "REV_AT_EPOCH": 474, "BSTAR": 0.00071006747, "MEAN_MOTION_DOT": 6.053e-05, "MEAN_MOTION_DDOT": 0}, "tle": {"line1": "1 30641U 99025ANY 25342.80195174  .00006053  00000+0  71007-3 0  9991", "line2": "2 30641  98.9421 276.7402 0136065 138.9481 277.5159 14.78914798  4741"}}, "geometry": {"type": "Point", "coordinates": [-109.39876258916625, 70.8077969210332]}}, {"type": "Feature", "properties": {"norad_id": 30646, "name": "FENGYUN 1C DEB", "group": "fengyun-1c-debris", "lat": -79.43495793023322, "lon": 129.4242019563622, "alt_km": 893.6624122596613, "timestamp": "2025-12-09T11:33:55.077606+00:00", "meta": {"OBJECT_NAME": "FENGYUN 1C DEB", "OBJECT_ID": "1999-025APD", "EPOCH": "2025-12-09T00:05:45.396960", "MEAN_MOTION": 14.09638411, "ECCENTRICITY": 0.0048407, "INCLINATION": 98.6523, "RA_OF_ASC_NODE": 3.6888, "ARG_OF_PERICENTER": 42.6968, "MEAN_ANOMALY": 317.7949, "EPHEMERIS_TYPE": 0, "CLASSIFICATION_TYPE": "U", "NORAD_CAT_ID": 30646, "ELEMENT_SET_NO": 999, "REV_AT_EPOCH": 96552, "BSTAR": 0.0010049, "MEAN_MOTION_DOT": 1.738e-05, "MEAN_MOTION_DDOT": 0}, "tle": {"line1": "1 30646U 99025APD 25343.00399765  .00001738  00000+0  10049-2 0  9994", "line2": "2 30646  98.6523   3.6888 0048407  42.6968 317.7949 14.09638411965529"}}, "geometry": {"type": "Point", "coordinates": [129.4242019563622, -79.43495793023322]}}, {"type": "Feature", "properties": {"norad_id": 30647, "name": "FENGYUN 1C DEB", "group": "fengyun-1c-debris", "lat": 4.385092292659722, "lon": 95.96891813007736, "alt_km": 687.0479307768228, "timestamp": "2025-12-09T11:33:55.077616+00:00", "meta": {"OBJECT_NAME": "FENGYUN 1C DEB", "OBJECT_ID": "1999-025APE", "EPOCH": "2025-12-08T14:08:38.652864", "MEAN_MOTION": 14.56346619, "ECCENTRICITY": 0.0028934, "INCLINATION": 98.9892, "RA_OF_ASC_NODE": 274.3121, "ARG_OF_PERICENTER": 187.4454, "MEAN_ANOMALY": 351.2018, "EPHEMERIS_TYPE": 0, "CLASSIFICATION_TYPE": "U", "NORAD_CAT_ID": 30647, "ELEMENT_SET_NO": 999, "REV_AT_EPOCH": 97928, "BSTAR": 0.0033052, "MEAN_MOTION_DOT": 0.00014711, "MEAN_MOTION_DDOT": 0}, "tle": {"line1": "1 30647U 99025APE 25342.58933626  .00014711  00000+0  33052-2 0  9991", "line2": "2 30647  98.9892 274.3121 0028934 187.4454 351.2018 14.56346619979286"}}, "geometry": {"type": "Point", "coordinates": [95.96891813007736, 4.385092292659722]}}]}